{
  "links" : {
    "next" : "https://api.nasa.gov/neo/rest/v1/feed?start_date=2012-09-16&end_date=2012-09-16&detailed=true&api_key=t0TVs3DtDT2H8Oy2Zy8m2eVrNsAVKAexjcZXUckd",
    "prev" : "https://api.nasa.gov/neo/rest/v1/feed?start_date=2012-09-14&end_date=2012-09-14&detailed=true&api_key=t0TVs3DtDT2H8Oy2Zy8m2eVrNsAVKAexjcZXUckd",
    "self" : "https://api.nasa.gov/neo/rest/v1/feed?start_date=2012-09-15&end_date=2012-09-15&detailed=true&api_key=t0TVs3DtDT2H8Oy2Zy8m2eVrNsAVKAexjcZXUckd"
  },
  "element_count" : 6,
  "near_earth_objects" : {
    "2012-09-15" : [ {
      "links" : {
        "self" : "https://api.nasa.gov/neo/rest/v1/neo/3120892?api_key=t0TVs3DtDT2H8Oy2Zy8m2eVrNsAVKAexjcZXUckd"
      },
      "neo_reference_id" : "3120892",
      "name" : "(2002 GJ8)",
      "nasa_jpl_url" : "http://ssd.jpl.nasa.gov/sbdb.cgi?sstr=3120892",
      "absolute_magnitude_h" : 19.4,
      "estimated_diameter" : {
        "kilometers" : {
          "estimated_diameter_min" : 0.3503926411,
          "estimated_diameter_max" : 0.7835017643
        },
        "meters" : {
          "estimated_diameter_min" : 350.3926411083,
          "estimated_diameter_max" : 783.5017643338
        },
        "miles" : {
          "estimated_diameter_min" : 0.2177238258,
          "estimated_diameter_max" : 0.4868452748
        },
        "feet" : {
          "estimated_diameter_min" : 1149.5821926537,
          "estimated_diameter_max" : 2570.543928497
        }
      },
      "is_potentially_hazardous_asteroid" : true,
      "close_approach_data" : [ {
        "close_approach_date" : "2012-09-15",
        "epoch_date_close_approach" : 1347692400000,
        "relative_velocity" : {
          "kilometers_per_second" : "24.1778027413",
          "kilometers_per_hour" : "87040.0898686069",
          "miles_per_hour" : "54083.3269519686"
        },
        "miss_distance" : {
          "astronomical" : "0.4636798893",
          "lunar" : "180.3714752197",
          "kilometers" : "69365520",
          "miles" : "43101736"
        },
        "orbiting_body" : "Earth"
      } ],
      "orbital_data" : {
        "orbit_id" : "33",
        "orbit_determination_date" : "2017-04-06 09:15:14",
        "orbit_uncertainty" : "0",
        "minimum_orbit_intersection" : ".0202174",
        "jupiter_tisserand_invariant" : "2.607",
        "epoch_osculation" : "2458000.5",
        "eccentricity" : ".6813273146701014",
        "semi_major_axis" : "3.234045391712932",
        "inclination" : "30.10883916871144",
        "ascending_node_longitude" : "144.876010609947",
        "orbital_period" : "2124.308533265664",
        "perihelion_distance" : "1.030601929455944",
        "perihelion_argument" : "174.4162799891552",
        "aphelion_distance" : "5.437488853969921",
        "perihelion_time" : "2458088.052642126816",
        "mean_anomaly" : "345.1627244008664",
        "mean_motion" : ".1694669085787544",
        "equinox" : "J2000"
      }
    }, {
      "links" : {
        "self" : "https://api.nasa.gov/neo/rest/v1/neo/3592016?api_key=t0TVs3DtDT2H8Oy2Zy8m2eVrNsAVKAexjcZXUckd"
      },
      "neo_reference_id" : "3592016",
      "name" : "(2012 AW)",
      "nasa_jpl_url" : "http://ssd.jpl.nasa.gov/sbdb.cgi?sstr=3592016",
      "absolute_magnitude_h" : 22.0,
      "estimated_diameter" : {
        "kilometers" : {
          "estimated_diameter_min" : 0.1058168859,
          "estimated_diameter_max" : 0.2366137501
        },
        "meters" : {
          "estimated_diameter_min" : 105.8168859331,
          "estimated_diameter_max" : 236.6137501138
        },
        "miles" : {
          "estimated_diameter_min" : 0.0657515442,
          "estimated_diameter_max" : 0.1470249225
        },
        "feet" : {
          "estimated_diameter_min" : 347.1682720448,
          "estimated_diameter_max" : 776.2918559233
        }
      },
      "is_potentially_hazardous_asteroid" : false,
      "close_approach_data" : [ {
        "close_approach_date" : "2012-09-15",
        "epoch_date_close_approach" : 1347692400000,
        "relative_velocity" : {
          "kilometers_per_second" : "7.0104158798",
          "kilometers_per_hour" : "25237.4971671388",
          "miles_per_hour" : "15681.5992814369"
        },
        "miss_distance" : {
          "astronomical" : "0.4710022212",
          "lunar" : "183.2198638916",
          "kilometers" : "70460928",
          "miles" : "43782392"
        },
        "orbiting_body" : "Earth"
      } ],
      "orbital_data" : {
        "orbit_id" : "7",
        "orbit_determination_date" : "2017-04-06 08:51:33",
        "orbit_uncertainty" : "2",
        "minimum_orbit_intersection" : ".119529",
        "jupiter_tisserand_invariant" : "5.351",
        "epoch_osculation" : "2458000.5",
        "eccentricity" : ".2897211579497306",
        "semi_major_axis" : "1.163336885348459",
        "inclination" : "14.02731096100042",
        "ascending_node_longitude" : "83.28842651756717",
        "orbital_period" : "458.3071938999429",
        "perihelion_distance" : ".8262935758396707",
        "perihelion_argument" : "140.7768236689614",
        "aphelion_distance" : "1.500380194857248",
        "perihelion_time" : "2457879.526722841648",
        "mean_anomaly" : "95.02442980747703",
        "mean_motion" : ".7854993436533201",
        "equinox" : "J2000"
      }
    }, {
      "links" : {
        "self" : "https://api.nasa.gov/neo/rest/v1/neo/2483459?api_key=t0TVs3DtDT2H8Oy2Zy8m2eVrNsAVKAexjcZXUckd"
      },
      "neo_reference_id" : "2483459",
      "name" : "483459 (2002 EM6)",
      "nasa_jpl_url" : "http://ssd.jpl.nasa.gov/sbdb.cgi?sstr=2483459",
      "absolute_magnitude_h" : 20.3,
      "estimated_diameter" : {
        "kilometers" : {
          "estimated_diameter_min" : 0.2315021222,
          "estimated_diameter_max" : 0.5176544822
        },
        "meters" : {
          "estimated_diameter_min" : 231.5021222103,
          "estimated_diameter_max" : 517.6544821978
        },
        "miles" : {
          "estimated_diameter_min" : 0.1438487052,
          "estimated_diameter_max" : 0.3216554833
        },
        "feet" : {
          "estimated_diameter_min" : 759.5214226325,
          "estimated_diameter_max" : 1698.3415313737
        }
      },
      "is_potentially_hazardous_asteroid" : false,
      "close_approach_data" : [ {
        "close_approach_date" : "2012-09-15",
        "epoch_date_close_approach" : 1347692400000,
        "relative_velocity" : {
          "kilometers_per_second" : "18.5574340983",
          "kilometers_per_hour" : "66806.7627538256",
          "miles_per_hour" : "41511.1243344535"
        },
        "miss_distance" : {
          "astronomical" : "0.1833378005",
          "lunar" : "71.3184051514",
          "kilometers" : "27426946",
          "miles" : "17042314"
        },
        "orbiting_body" : "Earth"
      } ],
      "orbital_data" : {
        "orbit_id" : "56",
        "orbit_determination_date" : "2017-09-12 06:21:23",
        "orbit_uncertainty" : "0",
        "minimum_orbit_intersection" : ".0517568",
        "jupiter_tisserand_invariant" : "5.282",
        "epoch_osculation" : "2458000.5",
        "eccentricity" : ".141258917279599",
        "semi_major_axis" : "1.15968047001977",
        "inclination" : "31.76008201680677",
        "ascending_node_longitude" : "169.5107222825081",
        "orbital_period" : "456.1481752620012",
        "perihelion_distance" : ".9958652624344811",
        "perihelion_argument" : "120.9314870715954",
        "aphelion_distance" : "1.32349567760506",
        "perihelion_time" : "2457959.530134032123",
        "mean_anomaly" : "32.33412419103512",
        "mean_motion" : ".7892172314253458",
        "equinox" : "J2000"
      }
    } ]
  }
}